STARLINK-37047          
1 68957U 26099G   26132.83335648  .00004003  00000+0  23805-4 0  9993
2 68957  53.1596 331.6991 0000730  79.0726 273.3407 15.80874157  3037
