{
  "norad_id": 68957,
  "name": "STARLINK-37047",
  "history": [
    {
      "epoch": "2026-05-12T20:00:01.999008Z",
      "apogee_km": 328.4575822975239,
      "perigee_km": 327.4771498392038,
      "latitude_deg": -6.191248278949297,
      "longitude_deg": 156.45316384349562,
      "height_km": 329.86880406557253,
      "semi_major_axis_km": 6706.104366068364,
      "eccentricity": 7.31e-05,
      "inclination_deg": 53.1596,
      "raan_deg": 331.6991,
      "arg_perigee_deg": 79.0726,
      "mean_anomaly_deg": 273.3407,
      "mean_motion_rev_day": 15.80874157
    }
  ]
}